*******************************************************************************
Ephemeris / WWW_USER Mon Mar 24 08:30:50 2025 Pasadena, USA      / Horizons    
*******************************************************************************
Target body name: (2018 WV1)                      {source: JPL#17}
Center body name: Earth (399)                     {source: DE441}
Center-site name: Mauna Kea
*******************************************************************************
Start time      : A.D. 2018-Nov-28 03:51:00.0000 UT      
Stop  time      : A.D. 2018-Nov-28 16:28:00.0000 UT      
Step-size       : 1 minutes
*******************************************************************************
Target pole/equ : undefined
Target radii    : undefined                                                    
Center geodetic : 204.5278, 19.8260847, 4.21024   {E-lon(deg),Lat(deg),Alt(km)}
Center cylindric: 204.5278, 6006.35451, 2151.0229 {E-lon(deg),Dxy(km),Dz(km)}
Center pole/equ : ITRF93                          {East-longitude positive}
Center radii    : 6378.137, 6378.137, 6356.752 km {Equator_a, b, pole_c}       
Target primary  : Sun
Vis. interferer : MOON (R_eq= 1737.400) km        {source: DE441}
Rel. light bend : Sun                             {source: DE441}
Rel. lght bnd GM: 1.3271E+11 km^3/s^2                                          
Small-body perts: Yes                             {source: SB441-N16}
Atmos refraction: NO (AIRLESS)
RA format       : HMS
Time format     : CAL 
Calendar mode   : Mixed Julian/Gregorian
RTS-only print  : NO       
EOP file        : eop.250321.p250617                                           
EOP coverage    : DATA-BASED 1962-JAN-20 TO 2025-MAR-21. PREDICTS-> 2025-JUN-16
Units conversion: 1 au= 149597870.700 km, c= 299792.458 km/s, 1 day= 86400.0 s 
Table cut-offs 1: Elevation (-90.0deg=NO ),Airmass (>38.000=NO), Daylight (YES)
Table cut-offs 2: Solar elongation (  0.0,180.0=NO ),Local Hour Angle( 0.0=NO )
Table cut-offs 3: RA/DEC angular rate (     0.0=NO )                           
*******************************************************************************
Initial IAU76/J2000 heliocentric ecliptic osculating elements (au, days, deg.):
  EPOCH=  2458458.5 ! 2018-Dec-06.00 (TDB)         Residual RMS= .12928        
   EC= .06869100257422787  QR= .9715505345748198   TP= 2458416.866413563       
   OM= 248.5061090469913   W=  141.3742304527303   IN= 1.905403987972275       
  Equivalent ICRF heliocentric cartesian coordinates (au, au/d):
   X= 2.787163119783287E-01  Y= 8.719775267121872E-01  Z= 3.748421051204766E-01
  VX=-1.676682657337402E-02 VY= 5.516972965834891E-03 VZ= 1.749720915605096E-03
Asteroid physical parameters (km, seconds, rotational period in hours):        
   GM= n.a.                RAD= n.a.               ROTPER= n.a.                
   H= 30.3                 G= .150                 B-V= n.a.                   
                           ALBEDO= n.a.            STYP= n.a.                  
*******************************************************************************
 Date__(UT)__HR:MN     R.A._________(ICRF)_________DEC
******************************************************
$$SOE
 2018-Nov-28 10:00  m  01 06 04.759859 +23 55 09.68295
 2018-Nov-28 10:01  m  01 06 04.077818 +23 55 08.60614
 2018-Nov-28 10:02  m  01 06 03.397291 +23 55 07.51948
 2018-Nov-28 10:03  m  01 06 02.718286 +23 55 06.42302
 2018-Nov-28 10:04  m  01 06 02.040811 +23 55 05.31679
 2018-Nov-28 10:05  m  01 06 01.364874 +23 55 04.20082
 2018-Nov-28 10:06  m  01 06 00.690484 +23 55 03.07517
 2018-Nov-28 10:07  m  01 06 00.017648 +23 55 01.93987
 2018-Nov-28 10:08  m  01 05 59.346375 +23 55 00.79495
 2018-Nov-28 10:09  m  01 05 58.676672 +23 54 59.64047
 2018-Nov-28 10:10  m  01 05 58.008547 +23 54 58.47646
 2018-Nov-28 10:11  m  01 05 57.342009 +23 54 57.30296
 2018-Nov-28 10:12  m  01 05 56.677065 +23 54 56.12001
 2018-Nov-28 10:13  m  01 05 56.013724 +23 54 54.92766
 2018-Nov-28 10:14  m  01 05 55.351992 +23 54 53.72594
 2018-Nov-28 10:15  m  01 05 54.691878 +23 54 52.51491
 2018-Nov-28 10:16  m  01 05 54.033389 +23 54 51.29459
 2018-Nov-28 10:17  m  01 05 53.376534 +23 54 50.06503
 2018-Nov-28 10:18  m  01 05 52.721320 +23 54 48.82627
 2018-Nov-28 10:19  m  01 05 52.067754 +23 54 47.57836
 2018-Nov-28 10:20  m  01 05 51.415845 +23 54 46.32134
 2018-Nov-28 10:21  m  01 05 50.765599 +23 54 45.05525
 2018-Nov-28 10:22  m  01 05 50.117025 +23 54 43.78014
 2018-Nov-28 10:23  m  01 05 49.470129 +23 54 42.49604
 2018-Nov-28 10:24  m  01 05 48.824921 +23 54 41.20300
 2018-Nov-28 10:25  m  01 05 48.181406 +23 54 39.90107
 2018-Nov-28 10:26  m  01 05 47.539592 +23 54 38.59028
 2018-Nov-28 10:27  m  01 05 46.899487 +23 54 37.27069
 2018-Nov-28 10:28  m  01 05 46.261098 +23 54 35.94233
 2018-Nov-28 10:29  m  01 05 45.624433 +23 54 34.60526
 2018-Nov-28 10:30  m  01 05 44.989498 +23 54 33.25951
 2018-Nov-28 10:31  m  01 05 44.356301 +23 54 31.90513
 2018-Nov-28 10:32  m  01 05 43.724849 +23 54 30.54216
 2018-Nov-28 10:33  m  01 05 43.095150 +23 54 29.17065
 2018-Nov-28 10:34  m  01 05 42.467210 +23 54 27.79065
 2018-Nov-28 10:35  m  01 05 41.841037 +23 54 26.40220
 2018-Nov-28 10:36  m  01 05 41.216637 +23 54 25.00534
 2018-Nov-28 10:37  m  01 05 40.594018 +23 54 23.60013
 2018-Nov-28 10:38  m  01 05 39.973187 +23 54 22.18660
 2018-Nov-28 10:39  m  01 05 39.354150 +23 54 20.76481
 2018-Nov-28 10:40  m  01 05 38.736915 +23 54 19.33480
 2018-Nov-28 10:41  m  01 05 38.121489 +23 54 17.89661
 2018-Nov-28 10:42  m  01 05 37.507878 +23 54 16.45030
 2018-Nov-28 10:43  m  01 05 36.896089 +23 54 14.99591
 2018-Nov-28 10:44  m  01 05 36.286129 +23 54 13.53348
 2018-Nov-28 10:45  m  01 05 35.678005 +23 54 12.06307
 2018-Nov-28 10:46  m  01 05 35.071723 +23 54 10.58472
 2018-Nov-28 10:47  m  01 05 34.467291 +23 54 09.09848
 2018-Nov-28 10:48  m  01 05 33.864714 +23 54 07.60440
 2018-Nov-28 10:49  m  01 05 33.263999 +23 54 06.10252
 2018-Nov-28 10:50  m  01 05 32.665153 +23 54 04.59289
 2018-Nov-28 10:51  m  01 05 32.068183 +23 54 03.07556
 2018-Nov-28 10:52  m  01 05 31.473095 +23 54 01.55059
 2018-Nov-28 10:53  m  01 05 30.879895 +23 54 00.01801
 2018-Nov-28 10:54  m  01 05 30.288589 +23 53 58.47788
 2018-Nov-28 10:55  m  01 05 29.699185 +23 53 56.93024
 2018-Nov-28 10:56  m  01 05 29.111688 +23 53 55.37514
 2018-Nov-28 10:57  m  01 05 28.526105 +23 53 53.81264
 2018-Nov-28 10:58  m  01 05 27.942442 +23 53 52.24278
 2018-Nov-28 10:59  m  01 05 27.360705 +23 53 50.66562
 2018-Nov-28 11:00  m  01 05 26.780901 +23 53 49.08119
 2018-Nov-28 11:01  m  01 05 26.203035 +23 53 47.48956
 2018-Nov-28 11:02  m  01 05 25.627114 +23 53 45.89077
 2018-Nov-28 11:03  m  01 05 25.053143 +23 53 44.28487
 2018-Nov-28 11:04  m  01 05 24.481129 +23 53 42.67191
 2018-Nov-28 11:05  m  01 05 23.911077 +23 53 41.05194
 2018-Nov-28 11:06  m  01 05 23.342994 +23 53 39.42502
 2018-Nov-28 11:07  m  01 05 22.776886 +23 53 37.79118
 2018-Nov-28 11:08  m  01 05 22.212758 +23 53 36.15050
 2018-Nov-28 11:09  m  01 05 21.650616 +23 53 34.50300
 2018-Nov-28 11:10  m  01 05 21.090466 +23 53 32.84876
 2018-Nov-28 11:11  m  01 05 20.532314 +23 53 31.18780
 2018-Nov-28 11:12  m  01 05 19.976165 +23 53 29.52020
 2018-Nov-28 11:13  m  01 05 19.422025 +23 53 27.84600
 2018-Nov-28 11:14  m  01 05 18.869899 +23 53 26.16525
 2018-Nov-28 11:15  m  01 05 18.319794 +23 53 24.47801
 2018-Nov-28 11:16  m  01 05 17.771715 +23 53 22.78432
 2018-Nov-28 11:17  m  01 05 17.225667 +23 53 21.08423
 2018-Nov-28 11:18  m  01 05 16.681655 +23 53 19.37781
 2018-Nov-28 11:19  m  01 05 16.139686 +23 53 17.66510
 2018-Nov-28 11:20  m  01 05 15.599764 +23 53 15.94615
 2018-Nov-28 11:21  m  01 05 15.061894 +23 53 14.22103
 2018-Nov-28 11:22  m  01 05 14.526083 +23 53 12.48977
 2018-Nov-28 11:23  m  01 05 13.992335 +23 53 10.75243
 2018-Nov-28 11:24  m  01 05 13.460656 +23 53 09.00907
 2018-Nov-28 11:25  m  01 05 12.931050 +23 53 07.25974
 2018-Nov-28 11:26  m  01 05 12.403523 +23 53 05.50449
 2018-Nov-28 11:27  m  01 05 11.878080 +23 53 03.74338
 2018-Nov-28 11:28  m  01 05 11.354725 +23 53 01.97646
 2018-Nov-28 11:29  m  01 05 10.833465 +23 53 00.20378
 2018-Nov-28 11:30  m  01 05 10.314303 +23 52 58.42539
 2018-Nov-28 11:31  m  01 05 09.797246 +23 52 56.64136
 2018-Nov-28 11:32  m  01 05 09.282296 +23 52 54.85173
 2018-Nov-28 11:33  m  01 05 08.769460 +23 52 53.05656
 2018-Nov-28 11:34  m  01 05 08.258742 +23 52 51.25591
 2018-Nov-28 11:35  m  01 05 07.750148 +23 52 49.44982
 2018-Nov-28 11:36  m  01 05 07.243680 +23 52 47.63835
 2018-Nov-28 11:37  m  01 05 06.739345 +23 52 45.82156
 2018-Nov-28 11:38  m  01 05 06.237147 +23 52 43.99950
 2018-Nov-28 11:39  m  01 05 05.737090 +23 52 42.17223
 2018-Nov-28 11:40  m  01 05 05.239180 +23 52 40.33979
 2018-Nov-28 11:41  m  01 05 04.743419 +23 52 38.50226
 2018-Nov-28 11:42  m  01 05 04.249814 +23 52 36.65967
 2018-Nov-28 11:43  m  01 05 03.758367 +23 52 34.81209
 2018-Nov-28 11:44  m  01 05 03.269084 +23 52 32.95958
 2018-Nov-28 11:45  m  01 05 02.781969 +23 52 31.10217
 2018-Nov-28 11:46  m  01 05 02.297027 +23 52 29.23995
 2018-Nov-28 11:47  m  01 05 01.814260 +23 52 27.37295
 2018-Nov-28 11:48  m  01 05 01.333674 +23 52 25.50123
 2018-Nov-28 11:49  m  01 05 00.855273 +23 52 23.62486
 2018-Nov-28 11:50  m  01 05 00.379060 +23 52 21.74388
 2018-Nov-28 11:51  m  01 04 59.905040 +23 52 19.85835
 2018-Nov-28 11:52  m  01 04 59.433217 +23 52 17.96834
 2018-Nov-28 11:53  m  01 04 58.963595 +23 52 16.07388
 2018-Nov-28 11:54  m  01 04 58.496177 +23 52 14.17505
 2018-Nov-28 11:55  m  01 04 58.030967 +23 52 12.27190
 2018-Nov-28 11:56  m  01 04 57.567970 +23 52 10.36447
 2018-Nov-28 11:57  m  01 04 57.107189 +23 52 08.45284
 2018-Nov-28 11:58  m  01 04 56.648627 +23 52 06.53706
 2018-Nov-28 11:59  m  01 04 56.192289 +23 52 04.61718
 2018-Nov-28 12:00  m  01 04 55.738179 +23 52 02.69327
 2018-Nov-28 12:01  m  01 04 55.286298 +23 52 00.76537
 2018-Nov-28 12:02  m  01 04 54.836652 +23 51 58.83354
